GLOBALSTAR M094 [+]     
1 39074U 13005C   23322.79627170 -.00000111  00000+0 -41759-4 0  9997
2 39074  51.9933 137.0571 0001226  96.7739 263.3268 12.62269925499580
GLOBALSTAR M096 [+]     
1 39075U 13005D   23322.80951435 -.00000102  00000+0  12291-4 0  9992
2 39075  52.0056 185.0831 0001354  80.0349 280.0671 12.62266397498501
GLOBALSTAR M078 [+]     
1 39076U 13005E   23322.54540605  .00000012  00000+0  64433-3 0  9990
2 39076  51.9878 271.1787 0001249  11.5543 348.5352 12.62264444497301
GLOBALSTAR M095 [+]     
1 39077U 13005F   23322.57190578 -.00000084  00000+0  10922-3 0  9998
2 39077  51.9802 268.5817 0001258  38.0951 322.0004 12.62270677497317
GLOBALSTAR M087 [+]     
1 52888U 22064A   23322.41774383 -.00000084  00000+0  84089-4 0  9999
2 52888  51.9756 226.8019 0009123 182.3440 177.7419 13.37558263 69184
